[{"OBJECT_NAME":"STARLINK-5320","OBJECT_ID":"2023-010W","EPOCH":"2026-03-09T22:25:03.019872","MEAN_MOTION":14.98339076,"ECCENTRICITY":0.00029837,"INCLINATION":70.0011,"RA_OF_ASC_NODE":23.927,"ARG_OF_PERICENTER":267.5358,"MEAN_ANOMALY":92.5459,"EPHEMERIS_TYPE":0,"CLASSIFICATION_TYPE":"U","NORAD_CAT_ID":55289,"ELEMENT_SET_NO":999,"REV_AT_EPOCH":17330,"BSTAR":-0.00034866534,"MEAN_MOTION_DOT":-4.252e-5,"MEAN_MOTION_DDOT":0},{"OBJECT_NAME":"CZ-4B DEB","OBJECT_ID":"2010-051H","EPOCH":"2026-03-08T15:03:50.230080","MEAN_MOTION":14.83710316,"ECCENTRICITY":0.01132064,"INCLINATION":97.7035,"RA_OF_ASC_NODE":129.0061,"ARG_OF_PERICENTER":211.6401,"MEAN_ANOMALY":147.7975,"EPHEMERIS_TYPE":0,"CLASSIFICATION_TYPE":"U","NORAD_CAT_ID":38326,"ELEMENT_SET_NO":999,"REV_AT_EPOCH":80705,"BSTAR":0.001509593,"MEAN_MOTION_DOT":0.00013943,"MEAN_MOTION_DDOT":0}]
